OBJECT_NAME,OBJECT_ID,EPOCH,MEAN_MOTION,ECCENTRICITY,INCLINATION,RA_OF_ASC_NODE,ARG_OF_PERICENTER,MEAN_ANOMALY,EPHEMERIS_TYPE,CLASSIFICATION_TYPE,NORAD_CAT_ID,ELEMENT_SET_NO,REV_AT_EPOCH,BSTAR,MEAN_MOTION_DOT,MEAN_MOTION_DDOT
STARLINK-31856,2024-107R,2026-06-29T13:06:22.106016,15.34400490,.0001002,53.1591,265.1597,104.2413,255.8700,0,U,59960,999,11693,-.35794E-4,-.1585E-4,0
STARLINK-31993,2024-107S,2026-06-29T11:53:48.388416,15.34374613,.0001293,53.1598,265.5539,39.8283,320.2814,0,U,59961,999,11686,-.15671E-3,-.5663E-4,0
STARLINK-31980,2024-107T,2026-06-29T11:35:36.861792,15.34392330,.000113,53.1617,265.4722,79.2020,280.9110,0,U,59962,999,11692,.14718E-4,.121E-5,0
STARLINK-31991,2024-107U,2026-06-29T12:11:58.149024,15.34388767,.0001077,53.1605,265.6339,87.7953,272.3173,0,U,59963,999,11692,-.3576E-4,-.1584E-4,0
STARLINK-31979,2024-107V,2026-06-29T11:44:41.430624,15.34406417,.000117,53.1596,265.5134,85.7738,274.3399,0,U,59964,999,11687,.4404E-4,.1112E-4,0
STARLINK-31978,2024-111A,2026-06-29T13:06:57.632832,15.31680037,.0001139,53.1612,275.7582,94.1491,265.9641,0,U,60016,999,11606,-.96501E-4,-.3356E-4,0
STARLINK-31987,2024-111B,2026-06-29T13:13:38.011296,15.31722338,.0001101,53.1616,275.7878,85.9301,274.1826,0,U,60017,999,11612,.32602E-4,.647E-5,0
STARLINK-31984,2024-111C,2026-06-29T12:36:37.932192,15.30206373,.0001292,53.1611,276.3303,98.6324,261.4824,0,U,60018,999,11600,.32629E-3,.9319E-4,0
STARLINK-31986,2024-111D,2026-06-29T12:22:57.518400,15.30194279,.0001108,53.1618,276.2716,95.7220,264.3907,0,U,60019,999,11616,.11462E-4,-.2E-6,0
STARLINK-31883,2024-111E,2026-06-29T12:51:49.730400,15.30198672,.0001203,53.1603,276.3983,87.7252,272.3886,0,U,60020,999,11610,.357E-4,.698E-5,0
STARLINK-31967,2024-111F,2026-06-29T12:02:16.713312,15.34409976,.0001549,53.1607,274.0549,90.8007,269.3173,0,U,60021,999,11619,.10436E-3,.3152E-4,0
STARLINK-31982,2024-111G,2026-06-29T11:53:13.049952,15.34357608,.0001331,53.1600,274.0260,99.3064,260.8089,0,U,60022,999,11619,.23425E-3,.7536E-4,0
STARLINK-31992,2024-111H,2026-06-29T12:15:21.493152,15.30195796,.0001167,53.1613,276.2436,98.2227,261.8906,0,U,60023,999,11616,.49201E-4,.1098E-4,0
STARLINK-31990,2024-111J,2026-06-29T12:09:16.112736,15.30201630,.0001372,53.1590,276.2158,54.6462,305.4667,0,U,60024,999,11615,.25111E-3,.7085E-4,0
STARLINK-31939,2024-111L,2026-06-29T11:49:32.088000,15.30158880,.0001022,53.1612,276.1272,118.6480,241.4624,0,U,60026,999,11615,.40922E-3,.11765E-3,0
STARLINK-32012,2024-111M,2026-06-29T11:54:05.315040,15.30199966,.0001178,53.1596,276.1426,96.7860,263.3275,0,U,60027,999,11615,.12542E-3,.3357E-4,0
STARLINK-32008,2024-111N,2026-06-29T12:00:11.149920,15.30166935,.0001311,53.1593,276.1691,87.8106,272.3044,0,U,60028,999,11615,.5E-3,.14463E-3,0
STARLINK-32006,2024-111P,2026-06-29T12:13:50.463840,15.30195594,.0001177,53.1611,276.2333,100.8412,259.2721,0,U,60029,999,11615,.44598E-4,.962E-5,0
STARLINK-32011,2024-111Q,2026-06-29T11:59:17.453184,15.34379177,.0001036,53.1615,274.0489,96.2870,263.8250,0,U,60030,999,11618,-.81687E-5,-.652E-5,0
STARLINK-31878,2024-111R,2026-06-29T11:47:15.815328,15.34393249,.0000915,53.1595,223.4554,94.5145,265.5962,0,U,60031,999,11664,.23915E-4,.432E-5,0
STARLINK-32017,2024-111S,2026-06-29T12:17:49.301088,15.33267931,.0014961,53.1597,276.2697,247.6950,112.2466,0,U,60032,999,11615,.23716E-1,.839621E-2,0
STARLINK-32005,2024-111U,2026-06-29T12:04:43.580352,15.30199241,.000119,53.1594,276.1920,86.2551,273.8586,0,U,60034,999,11605,.86746E-4,.2211E-4,0
STARLINK-31981,2024-111V,2026-06-29T12:32:04.180704,15.30201167,.000118,53.1615,276.3094,98.1425,261.9710,0,U,60035,999,11608,.39031E-4,.797E-5,0
STARLINK-31985,2024-111W,2026-06-29T12:27:30.975264,15.30193787,.0001394,53.1617,276.2866,102.0430,258.0727,0,U,60036,999,11609,.21061E-4,.264E-5,0
STARLINK-31918,2024-111X,2026-06-29T11:44:57.950304,15.30195621,.0001033,53.1612,276.1080,102.1290,257.9826,0,U,60037,999,11608,.25578E-4,.398E-5,0
STARLINK-11129 [DTC],2024-112A,2026-06-28T23:10:02.718336,15.69708078,.000095,53.1586,78.0466,109.7721,250.3400,0,U,60038,999,11845,-.1067969E-5,-.718E-5,0
STARLINK-11140 [DTC],2024-112B,2026-06-28T23:02:58.980768,15.69709978,.00009093,53.1593,78.0163,110.6154,249.4961,0,U,60039,999,11845,.1643774E-5,-.389E-5,0
STARLINK-11122 [DTC],2024-112C,2026-06-28T22:55:54.984000,15.69709253,.00008471,53.1587,77.9844,106.5503,253.5608,0,U,60040,999,11845,.4861824E-5,.1E-7,0
STARLINK-11149 [DTC],2024-112D,2026-06-28T22:48:50.958720,15.69712660,.00009752,53.1593,77.9507,92.8225,267.2904,0,U,60041,999,11845,.9707854E-5,.588E-5,0
STARLINK-11120 [DTC],2024-112E,2026-06-28T22:41:47.307552,15.69694548,.00010146,53.1591,77.9199,91.4823,268.6311,0,U,60042,999,11845,.33156648E-4,.3428E-4,0
STARLINK-11086 [DTC],2024-112F,2026-06-28T22:34:44.040000,15.69698989,.00007807,53.1591,77.8837,69.2559,290.8543,0,U,60043,999,11845,-.4667728E-5,-.1153E-4,0
STARLINK-11148 [DTC],2024-112G,2026-06-28T22:27:39.769344,15.69704146,.00007656,53.1575,77.8523,61.2871,298.8224,0,U,60044,999,11845,.12683743E-4,.948E-5,0
STARLINK-11116 [DTC],2024-112H,2026-06-28T23:52:17.145696,15.69707275,.00007876,53.1587,77.5050,104.5946,255.5159,0,U,60045,999,11846,-.2913232E-5,-.941E-5,0
STARLINK-11155 [DTC],2024-112J,2026-06-28T23:45:12.926016,15.69710576,.00006838,53.1593,77.4768,86.8567,273.2529,0,U,60046,999,11846,.6209194E-5,.164E-5,0
STARLINK-11163 [DTC],2024-112K,2026-06-28T23:38:09.433824,15.69701174,.00008298,53.1589,77.4399,97.5305,262.5807,0,U,60047,999,11846,.10298138E-4,.659E-5,0
STARLINK-11135 [DTC],2024-112L,2026-06-28T21:45:16.968096,15.69714622,.0001063,53.1573,77.6745,89.5293,270.5846,0,U,60048,999,11845,.13359059E-4,.103E-4,0
STARLINK-11151 [DTC],2024-112M,2026-06-28T23:31:05.324736,15.69707162,.0000963,53.1593,77.4098,69.0788,291.0333,0,U,60049,999,11846,.8523222E-5,.444E-5,0
STARLINK-11137 [DTC],2024-112N,2026-06-28T21:52:20.493120,15.69706623,.00008784,53.1593,77.6899,41.2675,318.8409,0,U,60050,999,11845,.11163271E-4,.764E-5,0
STARLINK-31811,2024-112P,2026-06-29T12:54:56.959200,15.31710778,.0001277,53.1607,278.2928,77.5202,282.5942,0,U,60051,999,11572,-.85942E-5,-.632E-5,0
STARLINK-31775,2024-112Q,2026-06-29T12:16:14.661984,15.30178867,.000054,53.1603,278.8368,96.0296,264.0766,0,U,60052,999,11571,-.12858E-4,-.739E-5,0
STARLINK-31793,2024-112R,2026-06-29T12:25:20.918208,15.30198869,.0001179,53.1613,278.8732,87.3393,272.7743,0,U,60053,999,11571,-.10682E-4,-.675E-5,0
STARLINK-31735,2024-112S,2026-06-29T12:07:06.560256,15.30196305,.0001147,53.1604,278.7936,109.5653,250.5472,0,U,60054,999,11571,.26016E-4,.411E-5,0
STARLINK-31788,2024-112T,2026-06-29T12:02:34.293120,15.30196042,.0001509,53.1602,278.7739,110.8121,249.3042,0,U,60055,999,11571,.19928E-3,.5547E-4,0
STARLINK-31825,2024-112U,2026-06-29T12:11:40.163136,15.30200224,.000127,53.1618,278.8156,105.2482,254.8659,0,U,60056,999,11571,.38013E-4,.767E-5,0
STARLINK-31437,2024-112V,2026-06-29T12:20:47.558976,15.30192200,.0001292,53.1613,278.8540,98.8645,261.2502,0,U,60057,999,11571,.19587E-4,.221E-5,0
STARLINK-11181 [DTC],2024-113A,2026-06-28T18:08:30.037344,15.69701013,.00011183,53.1595,3.8290,64.9539,295.1595,0,U,60059,999,11700,.7069729E-5,.268E-5,0
STARLINK-11176 [DTC],2024-113B,2026-06-29T12:21:38.365632,15.69701998,.0000875,53.1588,0.0285,67.3205,292.7905,0,U,60060,999,11712,.58945E-5,.126E-5,0
STARLINK-11167 [DTC],2024-113C,2026-06-29T12:14:34.164096,15.69707657,.0000775,53.1585,359.9946,86.1354,273.9752,0,U,60061,999,11742,.18189E-5,-.368E-5,0
STARLINK-11166 [DTC],2024-113D,2026-06-28T19:18:59.120352,15.69709005,.0001008,53.1596,3.4142,84.6184,275.4949,0,U,60062,999,11701,.12698612E-4,.95E-5,0
STARLINK-11165 [DTC],2024-113E,2026-06-28T22:15:17.176896,15.69725473,.00006294,53.1571,2.7537,80.5420,279.5669,0,U,60063,999,11703,.86683514E-4,.9933E-4,0
STARLINK-11169 [DTC],2024-113F,2026-06-28T22:08:12.581376,15.69763712,.00007816,53.1582,2.7211,30.9586,329.1478,0,U,60064,999,11703,-.77231238E-4,-.9954E-4,0
STARLINK-11102 [DTC],2024-113G,2026-06-28T18:57:48.080448,15.69706407,.00006025,53.1580,3.3154,83.2500,276.8587,0,U,60065,999,11701,.4569556E-5,-.34E-6,0
STARLINK-11141 [DTC],2024-113H,2026-06-28T18:50:44.309184,15.69694609,.00006611,53.1585,3.2851,80.7616,279.3477,0,U,60066,999,11701,.11096936E-4,.756E-5,0
STARLINK-11153 [DTC],2024-113J,2026-06-28T21:47:10.262688,15.69707866,.00007669,53.1588,3.3581,61.5621,298.5474,0,U,60067,999,11702,.18446077E-4,.1647E-4,0
STARLINK-11170 [DTC],2024-113K,2026-06-28T18:36:45.254592,15.69703666,.00009543,53.1583,3.9527,45.0894,315.0201,0,U,60068,999,11700,-.13701993E-4,-.2247E-4,0
STARLINK-11171 [DTC],2024-113L,2026-06-28T16:58:00.453216,15.69701915,.00009676,53.1581,4.2319,64.2052,295.9065,0,U,60069,999,11699,.4897775E-5,.5E-7,0
STARLINK-11186 [DTC],2024-113M,2026-06-29T12:42:49.504896,15.69708562,.0000522,53.1557,0.1168,56.6420,303.4648,0,U,60070,999,11753,.54717E-5,.75E-6,0
STARLINK-11184 [DTC],2024-113N,2026-06-29T12:35:46.264128,15.69735645,.0001011,53.1567,0.1266,96.9660,263.1473,0,U,60071,999,11712,.29919E-3,.35853E-3,0
STARLINK-32032,2024-113U,2026-06-29T08:13:42.359232,15.34392896,.0001058,53.1589,198.4369,84.3373,275.7750,0,U,60077,999,11435,.31158E-4,.677E-5,0
STARLINK-31441,2024-117A,2026-06-29T11:32:48.787008,15.31860578,.000039,53.1589,237.7650,115.3498,244.7544,0,U,60091,999,11400,.71885E-2,.230891E-2,0
STARLINK-32044,2024-117B,2026-06-29T12:00:02.998944,15.34343839,.0001402,53.1588,237.4513,76.2277,143.7332,0,U,60092,999,585,.54787E-3,.18146E-3,0
STARLINK-31239,2024-117C,2026-06-29T10:14:24.567072,15.34394857,.0000998,53.1603,238.1383,84.0127,276.0990,0,U,60093,999,11399,-.22291E-6,-.384E-5,0
STARLINK-32007,2024-117D,2026-06-29T09:16:51.390624,15.34389096,.0002283,53.1585,237.8895,10.9658,349.1394,0,U,60094,999,11399,.23598E-4,.42E-5,0
STARLINK-32028,2024-117E,2026-06-29T11:17:54.839040,15.34399297,.0001173,53.1611,237.7037,86.1744,273.9393,0,U,60095,999,11400,.96544E-5,-.5E-6,0
